OBJECT_NAME,OBJECT_ID,EPOCH,MEAN_MOTION,ECCENTRICITY,INCLINATION,RA_OF_ASC_NODE,ARG_OF_PERICENTER,MEAN_ANOMALY,EPHEMERIS_TYPE,CLASSIFICATION_TYPE,NORAD_CAT_ID,ELEMENT_SET_NO,REV_AT_EPOCH,BSTAR,MEAN_MOTION_DOT,MEAN_MOTION_DDOT
HAWK-5A,2022-057AB,2026-06-19T10:19:31.040832,15.51460047,.00054423,97.6614,329.4222,72.1777,288.0067,0,U,52757,999,22669,.28529381E-3,.16754E-3,0
HAWK-6B,2023-011A,2026-06-19T19:20:48.565824,15.22953795,.0001932,40.5000,336.7963,18.8888,341.1993,0,U,55324,999,18824,.17227E-3,.3937E-4,0
HAWK-6C,2023-011C,2026-06-19T19:19:51.787200,15.22949639,.000278,40.4989,333.6388,8.0387,352.0467,0,U,55326,999,18825,.16028E-3,.3648E-4,0
HAWK-6A,2023-011D,2026-06-19T19:19:56.230752,15.22951906,.0002483,40.5001,335.2634,2.2532,357.8288,0,U,55327,999,18825,.17119E-3,.3911E-4,0
HAWK-7A,2023-054P,2026-06-19T17:32:33.307584,15.27382172,.0004148,97.2695,58.0032,51.5002,308.6609,0,U,56191,999,17741,.16601E-3,.4379E-4,0
HAWK-7B,2023-054R,2026-06-19T17:32:26.342016,15.27380605,.000361,97.2720,56.2680,64.0470,296.1141,0,U,56193,999,17741,.1696E-3,.4475E-4,0
HAWK-7C,2023-054Y,2026-06-19T09:40:34.535136,15.27379568,.00035553,97.2697,56.7167,56.0832,304.0745,0,U,56200,999,17736,.17542209E-3,.4631E-4,0
